[{"OBJECT_NAME":"STARLINK-31122","OBJECT_ID":"2024-011K","EPOCH":"2026-03-09T06:24:36.512928","MEAN_MOTION":15.30193529,"ECCENTRICITY":0.00010974,"INCLINATION":53.1617,"RA_OF_ASC_NODE":15.7701,"ARG_OF_PERICENTER":114.9832,"MEAN_ANOMALY":245.1283,"EPHEMERIS_TYPE":0,"CLASSIFICATION_TYPE":"U","NORAD_CAT_ID":58774,"ELEMENT_SET_NO":999,"REV_AT_EPOCH":12020,"BSTAR":2.7376629e-5,"MEAN_MOTION_DOT":4.52e-6,"MEAN_MOTION_DDOT":0},{"OBJECT_NAME":"MESON-1","OBJECT_ID":"2024-043AK","EPOCH":"2026-03-09T21:36:16.481664","MEAN_MOTION":15.29893494,"ECCENTRICITY":0.00095452,"INCLINATION":97.5469,"RA_OF_ASC_NODE":205.2839,"ARG_OF_PERICENTER":227.1432,"MEAN_ANOMALY":132.9007,"EPHEMERIS_TYPE":0,"CLASSIFICATION_TYPE":"U","NORAD_CAT_ID":59131,"ELEMENT_SET_NO":999,"REV_AT_EPOCH":11189,"BSTAR":0.0002974823,"MEAN_MOTION_DOT":8.544e-5,"MEAN_MOTION_DDOT":0}]
